{
  "type": "FeatureCollection",
  "features": [
    {
      "type": "Feature",
      "properties": {
        "norad_id": 66338,
        "name": "STARLINK-35477",
        "group": "last-30-days",
        "lat": 28.569659583939714,
        "lon": 62.141911875129225,
        "alt_km": 439.91243783996106,
        "timestamp": "2025-12-05T16:54:13.484292+00:00",
        "meta_object_name": "STARLINK-35477",
        "meta_object_id": "2025-253V",
        "meta_epoch": "2025-12-05T04:15:52.086816",
        "meta_mean_motion": 15.40685248,
        "meta_eccentricity": 0.00010908,
        "meta_inclination": 43.0005,
        "meta_ra_of_asc_node": 29.421,
        "meta_arg_of_pericenter": 254.8175,
        "meta_mean_anomaly": 105.2561,
        "meta_ephemeris_type": 0,
        "meta_classification_type": "U",
        "meta_norad_cat_id": 66338,
        "meta_element_set_no": 999,
        "meta_rev_at_epoch": 575,
        "meta_bstar": 0.0019033954,
        "meta_mean_motion_dot": 0.00080004,
        "meta_mean_motion_ddot": 0,
        "tle_line1": "1 66338U 25253V   25339.17768619  .00080004  00000+0  19034-2 0  9990",
        "tle_line2": "2 66338  43.0005  29.4210 0001090 254.8175 105.2561 15.40685248  5750"
      },
      "geometry": {
        "type": "Point",
        "coordinates": [
          62.141911875129225,
          28.569659583939714
        ]
      }
    },
    {
      "type": "Feature",
      "properties": {
        "norad_id": 66339,
        "name": "STARLINK-35443",
        "group": "last-30-days",
        "lat": -9.375211836176414,
        "lon": -143.771523059587,
        "alt_km": 444.49822750649037,
        "timestamp": "2025-12-05T16:54:13.484302+00:00",
        "meta_object_name": "STARLINK-35443",
        "meta_object_id": "2025-253W",
        "meta_epoch": "2025-12-05T06:00:02.000160",
        "meta_mean_motion": 15.40718327,
        "meta_eccentricity": 0.00018463,
        "meta_inclination": 43.0005,
        "meta_ra_of_asc_node": 28.6417,
        "meta_arg_of_pericenter": 254.0754,
        "meta_mean_anomaly": 296.9249,
        "meta_ephemeris_type": 0,
        "meta_classification_type": "U",
        "meta_norad_cat_id": 66339,
        "meta_element_set_no": 999,
        "meta_rev_at_epoch": 577,
        "meta_bstar": -0.0015372135,
        "meta_mean_motion_dot": -0.00064021,
        "meta_mean_motion_ddot": 0,
        "tle_line1": "1 66339U 25253W   25339.25002315 -.00064021  00000+0 -15372-2 0  9998",
        "tle_line2": "2 66339  43.0005  28.6417 0001846 254.0754 296.9249 15.40718327  5773"
      },
      "geometry": {
        "type": "Point",
        "coordinates": [
          -143.771523059587,
          -9.375211836176414
        ]
      }
    },
    {
      "type": "Feature",
      "properties": {
        "norad_id": 66340,
        "name": "STARLINK-35218",
        "group": "last-30-days",
        "lat": -41.11341039437909,
        "lon": -43.683895968210635,
        "alt_km": 416.35351655593695,
        "timestamp": "2025-12-05T16:54:13.484311+00:00",
        "meta_object_name": "STARLINK-35218",
        "meta_object_id": "2025-253X",
        "meta_epoch": "2025-12-05T03:18:43.891200",
        "meta_mean_motion": 15.50623866,
        "meta_eccentricity": 0.00020086,
        "meta_inclination": 43.0006,
        "meta_ra_of_asc_node": 29.1148,
        "meta_arg_of_pericenter": 276.9945,
        "meta_mean_anomaly": 83.0687,
        "meta_ephemeris_type": 0,
        "meta_classification_type": "U",
        "meta_norad_cat_id": 66340,
        "meta_element_set_no": 999,
        "meta_rev_at_epoch": 575,
        "meta_bstar": 0.0025259709,
        "meta_mean_motion_dot": 0.0015098,
        "meta_mean_motion_ddot": 0,
        "tle_line1": "1 66340U 25253X   25339.13800800  .00150980  00000+0  25260-2 0  9997",
        "tle_line2": "2 66340  43.0006  29.1148 0002008 276.9945  83.0687 15.50623866  5752"
      },
      "geometry": {
        "type": "Point",
        "coordinates": [
          -43.683895968210635,
          -41.11341039437909
        ]
      }
    },
    {
      "type": "Feature",
      "properties": {
        "norad_id": 66341,
        "name": "STARLINK-35522",
        "group": "last-30-days",
        "lat": -25.18542184633771,
        "lon": -123.7253887083428,
        "alt_km": 446.4078031679064,
        "timestamp": "2025-12-05T16:54:13.484320+00:00",
        "meta_object_name": "STARLINK-35522",
        "meta_object_id": "2025-253Y",
        "meta_epoch": "2025-12-05T06:00:02.000160",
        "meta_mean_motion": 15.4061582,
        "meta_eccentricity": 0.00013911,
        "meta_inclination": 43.0007,
        "meta_ra_of_asc_node": 28.5861,
        "meta_arg_of_pericenter": 301.4663,
        "meta_mean_anomaly": 274.4137,
        "meta_ephemeris_type": 0,
        "meta_classification_type": "U",
        "meta_norad_cat_id": 66341,
        "meta_element_set_no": 999,
        "meta_rev_at_epoch": 582,
        "meta_bstar": 0.0016584385,
        "meta_mean_motion_dot": 0.00069411,
        "meta_mean_motion_ddot": 0,
        "tle_line1": "1 66341U 25253Y   25339.25002315  .00069411  00000+0  16584-2 0  9993",
        "tle_line2": "2 66341  43.0007  28.5861 0001391 301.4663 274.4137 15.40615820  5828"
      },
      "geometry": {
        "type": "Point",
        "coordinates": [
          -123.7253887083428,
          -25.18542184633771
        ]
      }
    },
    {
      "type": "Feature",
      "properties": {
        "norad_id": 66342,
        "name": "STARLINK-35535",
        "group": "last-30-days",
        "lat": 23.5941080949745,
        "lon": 178.19345243649695,
        "alt_km": 440.50816585392204,
        "timestamp": "2025-12-05T16:54:13.484330+00:00",
        "meta_object_name": "STARLINK-35535",
        "meta_object_id": "2025-253Z",
        "meta_epoch": "2025-12-05T06:00:02.000160",
        "meta_mean_motion": 15.40726114,
        "meta_eccentricity": 0.00019218,
        "meta_inclination": 43.0003,
        "meta_ra_of_asc_node": 28.7621,
        "meta_arg_of_pericenter": 235.4739,
        "meta_mean_anomaly": 265.7603,
        "meta_ephemeris_type": 0,
        "meta_classification_type": "U",
        "meta_norad_cat_id": 66342,
        "meta_element_set_no": 999,
        "meta_rev_at_epoch": 572,
        "meta_bstar": -0.0015802598,
        "meta_mean_motion_dot": -0.00065808,
        "meta_mean_motion_ddot": 0,
        "tle_line1": "1 66342U 25253Z   25339.25002315 -.00065808  00000+0 -15803-2 0  9995",
        "tle_line2": "2 66342  43.0003  28.7621 0001921 235.4739 265.7603 15.40726114  5729"
      },
      "geometry": {
        "type": "Point",
        "coordinates": [
          178.19345243649695,
          23.5941080949745
        ]
      }
    },
    {
      "type": "Feature",
      "properties": {
        "norad_id": 66343,
        "name": "STARLINK-35467",
        "group": "last-30-days",
        "lat": 40.74788103418879,
        "lon": 138.63671420400485,
        "alt_km": 438.7657781394437,
        "timestamp": "2025-12-05T16:54:13.484340+00:00",
        "meta_object_name": "STARLINK-35467",
        "meta_object_id": "2025-253AA",
        "meta_epoch": "2025-12-05T03:59:44.849184",
        "meta_mean_motion": 15.4069433,
        "meta_eccentricity": 0.00023831,
        "meta_inclination": 43.002,
        "meta_ra_of_asc_node": 29.335,
        "meta_arg_of_pericenter": 256.3336,
        "meta_mean_anomaly": 103.7255,
        "meta_ephemeris_type": 0,
        "meta_classification_type": "U",
        "meta_norad_cat_id": 66343,
        "meta_element_set_no": 999,
        "meta_rev_at_epoch": 575,
        "meta_bstar": 0.0019501814,
        "meta_mean_motion_dot": 0.00082028,
        "meta_mean_motion_ddot": 0,
        "tle_line1": "1 66343U 25253AA  25339.16649131  .00082028  00000+0  19502-2 0  9990",
        "tle_line2": "2 66343  43.0020  29.3350 0002383 256.3336 103.7255 15.40694330  5754"
      },
      "geometry": {
        "type": "Point",
        "coordinates": [
          138.63671420400485,
          40.74788103418879
        ]
      }
    },
    {
      "type": "Feature",
      "properties": {
        "norad_id": 66344,
        "name": "STARLINK-35511",
        "group": "last-30-days",
        "lat": -35.09307167315787,
        "lon": -23.181569924903613,
        "alt_km": 416.9999679679422,
        "timestamp": "2025-12-05T16:54:13.484349+00:00",
        "meta_object_name": "STARLINK-35511",
        "meta_object_id": "2025-253AB",
        "meta_epoch": "2025-12-04T10:13:55.829568",
        "meta_mean_motion": 15.50597049,
        "meta_eccentricity": 0.0001448,
        "meta_inclination": 43.0011,
        "meta_ra_of_asc_node": 33.2328,
        "meta_arg_of_pericenter": 274.0444,
        "meta_mean_anomaly": 86.0251,
        "meta_ephemeris_type": 0,
        "meta_classification_type": "U",
        "meta_norad_cat_id": 66344,
        "meta_element_set_no": 999,
        "meta_rev_at_epoch": 564,
        "meta_bstar": 0.00014218,
        "meta_mean_motion_dot": 8.013e-05,
        "meta_mean_motion_ddot": 0,
        "tle_line1": "1 66344U 25253AB  25338.42634062  .00008013  00000+0  14218-3 0  9998",
        "tle_line2": "2 66344  43.0011  33.2328 0001448 274.0444  86.0251 15.50597049  5649"
      },
      "geometry": {
        "type": "Point",
        "coordinates": [
          -23.181569924903613,
          -35.09307167315787
        ]
      }
    }
  ]
}